[Satellite]
VERSION=1.1
NAME=SL-8 R/B
NICKNAME=SL-8 R/B
TLE1=1 19257U 88053B   15054.31385506  .00000200  00000-0  75722-4 0  9993
TLE2=2 19257  74.0518 329.5506 0019498  68.5441  79.5425 14.37158098397388
